{
  "Ανατολικής Μακεδονίας & Θράκης": {
    "region_value": "1",
    "region_name_en": "Eastern Macedonia & Thrace",
    "municipalities": [
      {
        "name_gr": "Αβδήρων",
        "name_en": "Abdera",
        "value": "14"
      },
      {
        "name_gr": "Αλεξανδρούπολης",
        "name_en": "Alexandroupoli",
        "value": "15"
      },
      {
        "name_gr": "Αρριανών",
        "name_en": "Arrianon",
        "value": "16"
      },
      {
        "name_gr": "Διδυμοτείχου",
        "name_en": "Didymoteicho",
        "value": "17"
      },
      {
        "name_gr": "Δοξάτου",
        "name_en": "Doxato",
        "value": "18"
      },
      {
        "name_gr": "Δράμας",
        "name_en": "Drama",
        "value": "19"
      },
      {
        "name_gr": "Θάσου",
        "name_en": "Thasos",
        "value": "20"
      },
      {
        "name_gr": "Ιάσμου",
        "name_en": "Iasmos",
        "value": "21"
      },
      {
        "name_gr": "Καβάλας",
        "name_en": "Kavala",
        "value": "22"
      },
      {
        "name_gr": "Κάτω Νευροκοπίου",
        "name_en": "Kato Nevrokopi",
        "value": "23"
      },
      {
        "name_gr": "Κομοτηνής",
        "name_en": "Komotini",
        "value": "24"
      },
      {
        "name_gr": "Μαρωνείας - Σαπών",
        "name_en": "Maroneia - Sapes",
        "value": "25"
      },
      {
        "name_gr": "Μύκης",
        "name_en": "Myki",
        "value": "26"
      },
      {
        "name_gr": "Νέστου",
        "name_en": "Nestos",
        "value": "27"
      },
      {
        "name_gr": "Ξάνθης",
        "name_en": "Xanthi",
        "value": "28"
      },
      {
        "name_gr": "Ορεστιάδας",
        "name_en": "Orestiada",
        "value": "29"
      },
      {
        "name_gr": "Παγγαίου",
        "name_en": "Pangaio",
        "value": "30"
      },
      {
        "name_gr": "Παρανεστίου",
        "name_en": "Paranesti",
        "value": "31"
      },
      {
        "name_gr": "Προσοτσάνης",
        "name_en": "Prosotsani",
        "value": "32"
      },
      {
        "name_gr": "Σαμοθράκης",
        "name_en": "Samothraki",
        "value": "33"
      },
      {
        "name_gr": "Σουφλίου",
        "name_en": "Soufli",
        "value": "34"
      },
      {
        "name_gr": "Τοπείρου",
        "name_en": "Topeiros",
        "value": "35"
      }
    ]
  },
  "Αττικής": {
    "region_value": "2",
    "region_name_en": "Attica",
    "municipalities": [
      {
        "name_gr": "Αγίας Βαρβάρας",
        "name_en": "Agia Varvara",
        "value": "355"
      },
      {
        "name_gr": "Αγίας Παρασκευής",
        "name_en": "Agia Paraskevi",
        "value": "36"
      },
      {
        "name_gr": "Αγίου Δημητρίου",
        "name_en": "Agios Dimitrios",
        "value": "37"
      },
      {
        "name_gr": "Αγίων Αναργύρων - Καματερού",
        "name_en": "Agioi Anargyroi - Kamatero",
        "value": "38"
      },
      {
        "name_gr": "Αγκιστρίου",
        "name_en": "Agkistri",
        "value": "39"
      },
      {
        "name_gr": "Αθηναίων",
        "name_en": "Athens",
        "value": "40"
      },
      {
        "name_gr": "Αιγάλεω",
        "name_en": "Aigaleo",
        "value": "41"
      },
      {
        "name_gr": "Αίγινας",
        "name_en": "Aegina",
        "value": "42"
      },
      {
        "name_gr": "Αλίμου",
        "name_en": "Alimos",
        "value": "43"
      },
      {
        "name_gr": "Αμαρουσίου",
        "name_en": "Marousi",
        "value": "44"
      },
      {
        "name_gr": "Ασπροπύργου",
        "name_en": "Aspropyrgos",
        "value": "45"
      },
      {
        "name_gr": "Αχαρνών",
        "name_en": "Acharnes",
        "value": "46"
      },
      {
        "name_gr": "Βάρης - Βούλας - Βουλιαγμένης",
        "name_en": "Vari - Voula - Vouliagmeni",
        "value": "47"
      },
      {
        "name_gr": "Βριλησσίων",
        "name_en": "Vrilissia",
        "value": "48"
      },
      {
        "name_gr": "Βύρωνος",
        "name_en": "Vyronas",
        "value": "49"
      },
      {
        "name_gr": "Γαλατσίου",
        "name_en": "Galatsi",
        "value": "50"
      },
      {
        "name_gr": "Γλυφάδας",
        "name_en": "Glyfada",
        "value": "51"
      },
      {
        "name_gr": "Δάφνης - Υμηττού",
        "name_en": "Dafni - Ymittos",
        "value": "52"
      },
      {
        "name_gr": "Διονύσου",
        "name_en": "Dionysos",
        "value": "53"
      },
      {
        "name_gr": "Ελευσίνας",
        "name_en": "Elefsina",
        "value": "54"
      },
      {
        "name_gr": "Ελληνικού - Αργυρούπολης",
        "name_en": "Elliniko - Argyroupoli",
        "value": "55"
      },
      {
        "name_gr": "Ζωγράφου",
        "name_en": "Zografou",
        "value": "56"
      },
      {
        "name_gr": "Ηλιουπόλεως",
        "name_en": "Ilioupoli",
        "value": "57"
      },
      {
        "name_gr": "Ηρακλείου",
        "name_en": "Heraklion",
        "value": "58"
      },
      {
        "name_gr": "Ιλίου",
        "name_en": "Ilion",
        "value": "59"
      },
      {
        "name_gr": "Καισαριανής",
        "name_en": "Kaisariani",
        "value": "60"
      },
      {
        "name_gr": "Καλλιθέας",
        "name_en": "Kallithea",
        "value": "61"
      },
      {
        "name_gr": "Κερατσινίου - Δραπετσώνας",
        "name_en": "Keratsini - Drapetsona",
        "value": "62"
      },
      {
        "name_gr": "Κηφισιάς",
        "name_en": "Kifissia",
        "value": "63"
      },
      {
        "name_gr": "Κορυδαλλού",
        "name_en": "Korydallos",
        "value": "64"
      },
      {
        "name_gr": "Κρωπίας",
        "name_en": "Kropia",
        "value": "65"
      },
      {
        "name_gr": "Κυθήρων",
        "name_en": "Kythira",
        "value": "66"
      },
      {
        "name_gr": "Λαυρεωτικής",
        "name_en": "Lavreotiki",
        "value": "67"
      },
      {
        "name_gr": "Λυκόβρυσης - Πεύκης",
        "name_en": "Lykovrysi - Pefki",
        "value": "68"
      },
      {
        "name_gr": "Μάνδρας - Ειδυλλίας",
        "name_en": "Mandra - Eidyllia",
        "value": "69"
      },
      {
        "name_gr": "Μαραθώνος",
        "name_en": "Marathon",
        "value": "70"
      },
      {
        "name_gr": "Μαρκοπούλου Μεσογαίας",
        "name_en": "Markopoulo Mesogaias",
        "value": "71"
      },
      {
        "name_gr": "Μεγαρέων",
        "name_en": "Megara",
        "value": "72"
      },
      {
        "name_gr": "Μεταμορφώσεως",
        "name_en": "Metamorfosi",
        "value": "73"
      },
      {
        "name_gr": "Μοσχάτου - Ταύρου",
        "name_en": "Moschato - Tavros",
        "value": "74"
      },
      {
        "name_gr": "Νέας Ιωνίας",
        "name_en": "Nea Ionia",
        "value": "75"
      },
      {
        "name_gr": "Νέας Σμύρνης",
        "name_en": "Nea Smyrni",
        "value": "76"
      },
      {
        "name_gr": "Νικαίας - Αγίου Ιωάννου Ρέντη",
        "name_en": "Nikaia - Agios Ioannis Rentis",
        "value": "77"
      },
      {
        "name_gr": "Παιανίας",
        "name_en": "Paiania",
        "value": "78"
      },
      {
        "name_gr": "Παλαιού Φαλήρου",
        "name_en": "Palaio Faliro",
        "value": "79"
      },
      {
        "name_gr": "Παλλήνης",
        "name_en": "Pallini",
        "value": "80"
      },
      {
        "name_gr": "Παπάγου - Χολαργού",
        "name_en": "Papagou - Cholargos",
        "value": "81"
      },
      {
        "name_gr": "Πειραιώς",
        "name_en": "Piraeus",
        "value": "82"
      },
      {
        "name_gr": "Πεντέλης",
        "name_en": "Penteli",
        "value": "83"
      },
      {
        "name_gr": "Περάματος",
        "name_en": "Perama",
        "value": "84"
      },
      {
        "name_gr": "Περιστερίου",
        "name_en": "Peristeri",
        "value": "85"
      },
      {
        "name_gr": "Πετρούπολης",
        "name_en": "Petroupoli",
        "value": "86"
      },
      {
        "name_gr": "Πόρου",
        "name_en": "Poros",
        "value": "87"
      },
      {
        "name_gr": "Ραφήνας - Πικερμίου",
        "name_en": "Rafina - Pikermi",
        "value": "88"
      },
      {
        "name_gr": "Σαλαμίνας",
        "name_en": "Salamina",
        "value": "89"
      },
      {
        "name_gr": "Σαρωνικού",
        "name_en": "Saronikos",
        "value": "90"
      },
      {
        "name_gr": "Σπάτων - Αρτέμιδος",
        "name_en": "Spata - Artemida",
        "value": "91"
      },
      {
        "name_gr": "Σπετσών",
        "name_en": "Spetses",
        "value": "92"
      },
      {
        "name_gr": "Τροιζηνίας - Μεθάνων",
        "name_en": "Troizinia - Methana",
        "value": "93"
      },
      {
        "name_gr": "Ύδρας",
        "name_en": "Hydra",
        "value": "94"
      },
      {
        "name_gr": "Φιλαδέλφειας - Χαλκηδόνος",
        "name_en": "Filadelfeia - Chalkidona",
        "value": "95"
      },
      {
        "name_gr": "Φιλοθέης - Ψυχικού",
        "name_en": "Filothei - Psychiko",
        "value": "96"
      },
      {
        "name_gr": "Φυλής",
        "name_en": "Fyli",
        "value": "97"
      },
      {
        "name_gr": "Χαϊδαρίου",
        "name_en": "Chaidari",
        "value": "98"
      },
      {
        "name_gr": "Χαλανδρίου",
        "name_en": "Chalandri",
        "value": "99"
      },
      {
        "name_gr": "Ωρωπού",
        "name_en": "Oropos",
        "value": "100"
      }
    ]
  },
  "Βορείου Αιγαίου": {
    "region_value": "3",
    "region_name_en": "North Aegean",
    "municipalities": [
      {
        "name_gr": "Αγίου Ευστρατίου",
        "name_en": "Agios Efstratios",
        "value": "101"
      },
      {
        "name_gr": "Ικαρίας",
        "name_en": "Ikaria",
        "value": "102"
      },
      {
        "name_gr": "Λέσβου",
        "name_en": "Lesbos",
        "value": "103"
      },
      {
        "name_gr": "Λήμνου",
        "name_en": "Limnos",
        "value": "104"
      },
      {
        "name_gr": "Οινουσσών",
        "name_en": "Oinousses",
        "value": "105"
      },
      {
        "name_gr": "Σάμου",
        "name_en": "Samos",
        "value": "106"
      },
      {
        "name_gr": "Φούρνων Κορσέων",
        "name_en": "Fourni Korseon",
        "value": "107"
      },
      {
        "name_gr": "Χίου",
        "name_en": "Chios",
        "value": "108"
      },
      {
        "name_gr": "Ψαρών",
        "name_en": "Psara",
        "value": "109"
      }
    ]
  },
  "Δυτικής Ελλάδας": {
    "region_value": "4",
    "region_name_en": "Western Greece",
    "municipalities": [
      {
        "name_gr": "Αγρινίου",
        "name_en": "Agrinio",
        "value": "110"
      },
      {
        "name_gr": "Αιγιαλείας",
        "name_en": "Aigialeia",
        "value": "111"
      },
      {
        "name_gr": "Άκτιου - Βόνιτσας",
        "name_en": "Aktio - Vonitsa",
        "value": "112"
      },
      {
        "name_gr": "Αμφιλοχίας",
        "name_en": "Amfilochia",
        "value": "113"
      },
      {
        "name_gr": "Ανδραβίδας - Κυλλήνης",
        "name_en": "Andravida - Kyllini",
        "value": "114"
      },
      {
        "name_gr": "Ανδρίτσαινας - Κρεστένων",
        "name_en": "Andritsaina - Krestena",
        "value": "115"
      },
      {
        "name_gr": "Αρχαίας Ολυμπίας",
        "name_en": "Ancient Olympia",
        "value": "116"
      },
      {
        "name_gr": "Δυτικής Αχαΐας",
        "name_en": "Western Achaia",
        "value": "117"
      },
      {
        "name_gr": "Ερυμάνθου",
        "name_en": "Erymanthos",
        "value": "118"
      },
      {
        "name_gr": "Ζαχάρως",
        "name_en": "Zacharo",
        "value": "119"
      },
      {
        "name_gr": "Ήλιδας",
        "name_en": "Ilida",
        "value": "120"
      },
      {
        "name_gr": "Θέρμου",
        "name_en": "Thermos",
        "value": "121"
      },
      {
        "name_gr": "Ιεράς Πόλης Μεσολογγίου",
        "name_en": "Messolonghi",
        "value": "122"
      },
      {
        "name_gr": "Καλαβρύτων",
        "name_en": "Kalavryta",
        "value": "123"
      },
      {
        "name_gr": "Ναυπακτίας",
        "name_en": "Nafpaktia",
        "value": "124"
      },
      {
        "name_gr": "Ξηρομέρου",
        "name_en": "Xiromero",
        "value": "125"
      },
      {
        "name_gr": "Πατρέων",
        "name_en": "Patras",
        "value": "126"
      },
      {
        "name_gr": "Πηνειού",
        "name_en": "Pineios",
        "value": "127"
      },
      {
        "name_gr": "Πύργου",
        "name_en": "Pyrgos",
        "value": "128"
      }
    ]
  },
  "Δυτικής Μακεδονίας": {
    "region_value": "5",
    "region_name_en": "Western Macedonia",
    "municipalities": [
      {
        "name_gr": "Αμυνταίου",
        "name_en": "Amyntaio",
        "value": "129"
      },
      {
        "name_gr": "Άργους Ορεστικού",
        "name_en": "Argos Orestiko",
        "value": "130"
      },
      {
        "name_gr": "Βοίου",
        "name_en": "Voio",
        "value": "131"
      },
      {
        "name_gr": "Γρεβενών",
        "name_en": "Grevena",
        "value": "132"
      },
      {
        "name_gr": "Δεσκάτης",
        "name_en": "Deskati",
        "value": "133"
      },
      {
        "name_gr": "Εορδαίας",
        "name_en": "Eordaia",
        "value": "134"
      },
      {
        "name_gr": "Καστοριάς",
        "name_en": "Kastoria",
        "value": "135"
      },
      {
        "name_gr": "Κοζάνης",
        "name_en": "Kozani",
        "value": "136"
      },
      {
        "name_gr": "Νεστορίου",
        "name_en": "Nestorio",
        "value": "137"
      },
      {
        "name_gr": "Πρεσπών",
        "name_en": "Prespes",
        "value": "138"
      },
      {
        "name_gr": "Σερβίων - Βελβεντού",
        "name_en": "Servia - Velventos",
        "value": "139"
      },
      {
        "name_gr": "Φλώρινας",
        "name_en": "Florina",
        "value": "140"
      }
    ]
  },
  "Ηπείρου": {
    "region_value": "6",
    "region_name_en": "Epirus",
    "municipalities": [
      {
        "name_gr": "Αρταίων",
        "name_en": "Arta",
        "value": "141"
      },
      {
        "name_gr": "Βορείων Τζουμέρκων",
        "name_en": "Northern Tzoumerka",
        "value": "142"
      },
      {
        "name_gr": "Γεωργίου Καραϊσκάκη",
        "name_en": "Georgios Karaiskakis",
        "value": "143"
      },
      {
        "name_gr": "Δωδώνης",
        "name_en": "Dodoni",
        "value": "144"
      },
      {
        "name_gr": "Ζαγορίου",
        "name_en": "Zagori",
        "value": "145"
      },
      {
        "name_gr": "Ζηρού",
        "name_en": "Ziros",
        "value": "146"
      },
      {
        "name_gr": "Ζίτσας",
        "name_en": "Zitsa",
        "value": "147"
      },
      {
        "name_gr": "Ηγουμενίτσας",
        "name_en": "Igoumenitsa",
        "value": "148"
      },
      {
        "name_gr": "Ιωαννιτών",
        "name_en": "Ioannina",
        "value": "149"
      },
      {
        "name_gr": "Κεντρικών Τζουμέρκων",
        "name_en": "Central Tzoumerka",
        "value": "150"
      },
      {
        "name_gr": "Κόνιτσας",
        "name_en": "Konitsa",
        "value": "151"
      },
      {
        "name_gr": "Μετσόβου",
        "name_en": "Metsovo",
        "value": "152"
      },
      {
        "name_gr": "Νικολάου Σκουφά",
        "name_en": "Nikolaos Skoufas",
        "value": "153"
      },
      {
        "name_gr": "Πάργας",
        "name_en": "Parga",
        "value": "154"
      },
      {
        "name_gr": "Πρέβεζας",
        "name_en": "Preveza",
        "value": "155"
      },
      {
        "name_gr": "Πωγωνίου",
        "name_en": "Pogoni",
        "value": "156"
      },
      {
        "name_gr": "Σουλίου",
        "name_en": "Souli",
        "value": "157"
      },
      {
        "name_gr": "Φιλιατών",
        "name_en": "Filiates",
        "value": "158"
      }
    ]
  },
  "Θεσσαλίας": {
    "region_value": "7",
    "region_name_en": "Thessaly",
    "municipalities": [
      {
        "name_gr": "Αγιάς",
        "name_en": "Agias",
        "value": "159"
      },
      {
        "name_gr": "Αλμυρού",
        "name_en": "Almyros",
        "value": "160"
      },
      {
        "name_gr": "Αλοννήσου",
        "name_en": "Alonnisos",
        "value": "161"
      },
      {
        "name_gr": "Αργιθέας",
        "name_en": "Argithea",
        "value": "162"
      },
      {
        "name_gr": "Βόλου",
        "name_en": "Volos",
        "value": "163"
      },
      {
        "name_gr": "Ελασσόνας",
        "name_en": "Elassona",
        "value": "164"
      },
      {
        "name_gr": "Ζαγοράς - Μουρεσίου",
        "name_en": "Zagora - Mouresi",
        "value": "165"
      },
      {
        "name_gr": "Μετεώρων",
        "name_en": "Meteora",
        "value": "166"
      },
      {
        "name_gr": "Καρδίτσας",
        "name_en": "Karditsa",
        "value": "167"
      },
      {
        "name_gr": "Κιλελέρ",
        "name_en": "Kileler",
        "value": "168"
      },
      {
        "name_gr": "Λαρισαίων",
        "name_en": "Larisa",
        "value": "169"
      },
      {
        "name_gr": "Λίμνης Πλαστήρα",
        "name_en": "Lake Plastiras",
        "value": "170"
      },
      {
        "name_gr": "Μουζακίου",
        "name_en": "Mouzaki",
        "value": "171"
      },
      {
        "name_gr": "Νοτίου Πηλίου",
        "name_en": "South Pelion",
        "value": "172"
      },
      {
        "name_gr": "Παλαμά",
        "name_en": "Palamas",
        "value": "173"
      },
      {
        "name_gr": "Πύλης",
        "name_en": "Pyli",
        "value": "174"
      },
      {
        "name_gr": "Ρήγα Φερραίου",
        "name_en": "Rigas Feraios",
        "value": "175"
      },
      {
        "name_gr": "Σκιάθου",
        "name_en": "Skiathos",
        "value": "176"
      },
      {
        "name_gr": "Σκοπέλου",
        "name_en": "Skopelos",
        "value": "177"
      },
      {
        "name_gr": "Σοφάδων",
        "name_en": "Sofades",
        "value": "178"
      },
      {
        "name_gr": "Τρικκαίων",
        "name_en": "Trikala",
        "value": "179"
      },
      {
        "name_gr": "Τυρνάβου",
        "name_en": "Tyrnavos",
        "value": "180"
      },
      {
        "name_gr": "Φαρκαδόνας",
        "name_en": "Farkadona",
        "value": "181"
      },
      {
        "name_gr": "Φαρσάλων",
        "name_en": "Farsala",
        "value": "182"
      },
      {
        "name_gr": "Τεμπών",
        "name_en": "Tempi",
        "value": "183"
      }
    ]
  },
  "Ιονίων Νήσων": {
    "region_value": "8",
    "region_name_en": "Ionian Islands",
    "municipalities": [
      {
        "name_gr": "Ζακύνθου",
        "name_en": "Zakynthos",
        "value": "184"
      },
      {
        "name_gr": "Ιθάκης",
        "name_en": "Ithaki",
        "value": "185"
      },
      {
        "name_gr": "Κέρκυρας",
        "name_en": "Corfu",
        "value": "186"
      },
      {
        "name_gr": "Κεφαλονιάς",
        "name_en": "Kefalonia",
        "value": "187"
      },
      {
        "name_gr": "Λευκάδος",
        "name_en": "Lefkada",
        "value": "188"
      },
      {
        "name_gr": "Μεγανησίου",
        "name_en": "Meganisi",
        "value": "189"
      },
      {
        "name_gr": "Παξών",
        "name_en": "Paxos",
        "value": "190"
      }
    ]
  },
  "Κεντρικής Μακεδονίας": {
    "region_value": "9",
    "region_name_en": "Central Macedonia",
    "municipalities": [
      {
        "name_gr": "Αλεξάνδρειας",
        "name_en": "Alexandria",
        "value": "191"
      },
      {
        "name_gr": "Αλμωπίας",
        "name_en": "Almopia",
        "value": "192"
      },
      {
        "name_gr": "Αμπελοκήπων - Μενεμένης",
        "name_en": "Ampelokipoi - Menemeni",
        "value": "193"
      },
      {
        "name_gr": "Αμφίπολης",
        "name_en": "Amphipoli",
        "value": "194"
      },
      {
        "name_gr": "Αριστοτέλη",
        "name_en": "Aristoteli",
        "value": "195"
      },
      {
        "name_gr": "Βέροιας",
        "name_en": "Veria",
        "value": "196"
      },
      {
        "name_gr": "Βισαλτίας",
        "name_en": "Visaltia",
        "value": "197"
      },
      {
        "name_gr": "Βόλβης",
        "name_en": "Volvi",
        "value": "198"
      },
      {
        "name_gr": "Δέλτα",
        "name_en": "Delta",
        "value": "199"
      },
      {
        "name_gr": "Δίου - Ολύμπου",
        "name_en": "Dion - Olympos",
        "value": "200"
      },
      {
        "name_gr": "Έδεσσας",
        "name_en": "Edessa",
        "value": "201"
      },
      {
        "name_gr": "Εμμανουήλ Παππά",
        "name_en": "Emmanouel Pappas",
        "value": "202"
      },
      {
        "name_gr": "Ηρακλείας",
        "name_en": "Iraklia",
        "value": "203"
      },
      {
        "name_gr": "Ηρωικής Πόλεως Νάουσας",
        "name_en": "Heroic City of Naoussa",
        "value": "204"
      },
      {
        "name_gr": "Θερμαϊκού",
        "name_en": "Thermaikos",
        "value": "205"
      },
      {
        "name_gr": "Θέρμης",
        "name_en": "Thermi",
        "value": "206"
      },
      {
        "name_gr": "Θεσσαλονίκης",
        "name_en": "Thessaloniki",
        "value": "207"
      },
      {
        "name_gr": "Καλαμαριάς",
        "name_en": "Kalamaria",
        "value": "208"
      },
      {
        "name_gr": "Κασσάνδρας",
        "name_en": "Kassandra",
        "value": "209"
      },
      {
        "name_gr": "Κατερίνης",
        "name_en": "Katerini",
        "value": "210"
      },
      {
        "name_gr": "Κιλκίς",
        "name_en": "Kilkis",
        "value": "211"
      },
      {
        "name_gr": "Κορδελιού - Ευόσμου",
        "name_en": "Kordelio - Evosmos",
        "value": "212"
      },
      {
        "name_gr": "Λαγκαδά",
        "name_en": "Langadas",
        "value": "213"
      },
      {
        "name_gr": "Νέαπολης - Συκεών",
        "name_en": "Neapolis - Sykeon",
        "value": "214"
      },
      {
        "name_gr": "Νέας Ζίχνης",
        "name_en": "Nea Zichni",
        "value": "215"
      },
      {
        "name_gr": "Νέας Προποντίδας",
        "name_en": "Nea Propontida",
        "value": "216"
      },
      {
        "name_gr": "Παιονίας",
        "name_en": "Paionia",
        "value": "217"
      },
      {
        "name_gr": "Παύλου Μελά",
        "name_en": "Pavlos Melas",
        "value": "218"
      },
      {
        "name_gr": "Πέλλας",
        "name_en": "Pella",
        "value": "219"
      },
      {
        "name_gr": "Πολυγύρου",
        "name_en": "Polygyros",
        "value": "220"
      },
      {
        "name_gr": "Πύδνας - Κολινδρού",
        "name_en": "Pydna - Kolindros",
        "value": "221"
      },
      {
        "name_gr": "Πυλαίας - Χορτιάτη",
        "name_en": "Pylaia - Chortiatis",
        "value": "222"
      },
      {
        "name_gr": "Σερρών",
        "name_en": "Serres",
        "value": "223"
      },
      {
        "name_gr": "Σιθωνίας",
        "name_en": "Sithonia",
        "value": "224"
      },
      {
        "name_gr": "Σιντικής",
        "name_en": "Sintiki",
        "value": "225"
      },
      {
        "name_gr": "Σκύδρας",
        "name_en": "Skydra",
        "value": "226"
      },
      {
        "name_gr": "Χαλκηδόνος",
        "name_en": "Chalkidona",
        "value": "227"
      },
      {
        "name_gr": "Ωραιοκάστρου",
        "name_en": "Oraiokastro",
        "value": "228"
      }
    ]
  },
  "Κρήτης": {
    "region_value": "10",
    "region_name_en": "Crete",
    "municipalities": [
      {
        "name_gr": "Αγίου Βασιλείου",
        "name_en": "Agios Vasileios",
        "value": "229"
      },
      {
        "name_gr": "Αγίου Νικολάου",
        "name_en": "Agios Nikolaos",
        "value": "230"
      },
      {
        "name_gr": "Αμαρίου",
        "name_en": "Amari",
        "value": "231"
      },
      {
        "name_gr": "Ανωγείων",
        "name_en": "Anogeia",
        "value": "232"
      },
      {
        "name_gr": "Αποκορώνου",
        "name_en": "Apokoronas",
        "value": "233"
      },
      {
        "name_gr": "Αρχανών - Αστερουσίων",
        "name_en": "Archanes - Asterousia",
        "value": "234"
      },
      {
        "name_gr": "Βιάννου",
        "name_en": "Viannos",
        "value": "235"
      },
      {
        "name_gr": "Γαύδου",
        "name_en": "Gavdos",
        "value": "236"
      },
      {
        "name_gr": "Γόρτυνας",
        "name_en": "Gortyna",
        "value": "237"
      },
      {
        "name_gr": "Ηρακλείου ΚΡΗΤΗΣ",
        "name_en": "Heraklion",
        "value": "238"
      },
      {
        "name_gr": "Ιεράπετρας",
        "name_en": "Ierapetra",
        "value": "239"
      },
      {
        "name_gr": "Καντάνου - Σέλινου",
        "name_en": "Kandanos - Selino",
        "value": "240"
      },
      {
        "name_gr": "Κισσάμου",
        "name_en": "Kissamos",
        "value": "241"
      },
      {
        "name_gr": "Μαλεβιζίου",
        "name_en": "Malevizi",
        "value": "242"
      },
      {
        "name_gr": "Μινώα Πεδιάδας",
        "name_en": "Minoa Pediada",
        "value": "243"
      },
      {
        "name_gr": "Μυλοποτάμου",
        "name_en": "Mylopotamos",
        "value": "244"
      },
      {
        "name_gr": "Οροπεδίου Λασιθίου",
        "name_en": "Lasithi Plateau",
        "value": "245"
      },
      {
        "name_gr": "Πλατανιά",
        "name_en": "Platanias",
        "value": "246"
      },
      {
        "name_gr": "Ρεθύμνης",
        "name_en": "Rethymno",
        "value": "247"
      },
      {
        "name_gr": "Σητείας",
        "name_en": "Sitia",
        "value": "248"
      },
      {
        "name_gr": "Σφακίων",
        "name_en": "Sfakia",
        "value": "249"
      },
      {
        "name_gr": "Φαιστού",
        "name_en": "Phaistos",
        "value": "250"
      },
      {
        "name_gr": "Χανίων",
        "name_en": "Chania",
        "value": "251"
      },
      {
        "name_gr": "Χερσονήσου",
        "name_en": "Hersonissos",
        "value": "252"
      }
    ]
  },
  "Νοτίου Αιγαίου": {
    "region_value": "11",
    "region_name_en": "South Aegean",
    "municipalities": [
      {
        "name_gr": "Αγαθονησίου",
        "name_en": "Agathonisi",
        "value": "253"
      },
      {
        "name_gr": "Αμοργού",
        "name_en": "Amorgos",
        "value": "254"
      },
      {
        "name_gr": "Ανάφης",
        "name_en": "Anafi",
        "value": "255"
      },
      {
        "name_gr": "Άνδρου",
        "name_en": "Andros",
        "value": "256"
      },
      {
        "name_gr": "Αντιπάρου",
        "name_en": "Antiparos",
        "value": "257"
      },
      {
        "name_gr": "Αστυπάλαιας",
        "name_en": "Astypalaia",
        "value": "258"
      },
      {
        "name_gr": "Θήρας",
        "name_en": "Thira",
        "value": "259"
      },
      {
        "name_gr": "Ιητών",
        "name_en": "Iito",
        "value": "260"
      },
      {
        "name_gr": "Καλυμνίων",
        "name_en": "Kalymnos",
        "value": "261"
      },
      {
        "name_gr": "Καρπάθου",
        "name_en": "Karpathos",
        "value": "262"
      },
      {
        "name_gr": "Κάσου",
        "name_en": "Kasos",
        "value": "263"
      },
      {
        "name_gr": "Κέας",
        "name_en": "Kea",
        "value": "264"
      },
      {
        "name_gr": "Κιμώλου",
        "name_en": "Kimolos",
        "value": "265"
      },
      {
        "name_gr": "Κύθνου",
        "name_en": "Kythnos",
        "value": "266"
      },
      {
        "name_gr": "Κώ",
        "name_en": "Kos",
        "value": "267"
      },
      {
        "name_gr": "Λειψών",
        "name_en": "Lipsi",
        "value": "268"
      },
      {
        "name_gr": "Λέρου",
        "name_en": "Leros",
        "value": "269"
      },
      {
        "name_gr": "Μεγίστης",
        "name_en": "Megisti",
        "value": "270"
      },
      {
        "name_gr": "Μήλου",
        "name_en": "Milos",
        "value": "271"
      },
      {
        "name_gr": "Μυκόνου",
        "name_en": "Mykonos",
        "value": "272"
      },
      {
        "name_gr": "Νάξου & Μικρών Κυκλάδων",
        "name_en": "Naxos & Small Cyclades",
        "value": "273"
      },
      {
        "name_gr": "Νισύρου",
        "name_en": "Nisyros",
        "value": "274"
      },
      {
        "name_gr": "Πάρου",
        "name_en": "Paros",
        "value": "275"
      },
      {
        "name_gr": "Πάτμου",
        "name_en": "Patmos",
        "value": "276"
      },
      {
        "name_gr": "Ρόδου",
        "name_en": "Rhodes",
        "value": "277"
      },
      {
        "name_gr": "Σερίφου",
        "name_en": "Serifos",
        "value": "278"
      },
      {
        "name_gr": "Σικίνου",
        "name_en": "Sikinos",
        "value": "279"
      },
      {
        "name_gr": "Σίφνου",
        "name_en": "Sifnos",
        "value": "280"
      },
      {
        "name_gr": "Σύμης",
        "name_en": "Symi",
        "value": "281"
      },
      {
        "name_gr": "Σύρου - Ερμούπολης",
        "name_en": "Syros - Ermoupoli",
        "value": "282"
      },
      {
        "name_gr": "Τήλου",
        "name_en": "Tilos",
        "value": "283"
      },
      {
        "name_gr": "Τήνου",
        "name_en": "Tinos",
        "value": "284"
      },
      {
        "name_gr": "Φολεγάνδρου",
        "name_en": "Folegandros",
        "value": "285"
      },
      {
        "name_gr": "Χάλκης",
        "name_en": "Halki",
        "value": "286"
      }
    ]
  },
  "Πελοποννήσου": {
    "region_value": "12",
    "region_name_en": "Peloponnese",
    "municipalities": [
      {
        "name_gr": "Ανατολικής Μάνης",
        "name_en": "East Mani",
        "value": "287"
      },
      {
        "name_gr": "Άργους - Μυκηνών",
        "name_en": "Argos - Mykines",
        "value": "288"
      },
      {
        "name_gr": "Βέλου - Βόχας",
        "name_en": "Velo - Vocha",
        "value": "289"
      },
      {
        "name_gr": "Βόρειας Κυνουρίας",
        "name_en": "North Kynouria",
        "value": "290"
      },
      {
        "name_gr": "Γόρτυνος",
        "name_en": "Gortynia",
        "value": "291"
      },
      {
        "name_gr": "Δυτικής Μάνης",
        "name_en": "West Mani",
        "value": "292"
      },
      {
        "name_gr": "Ελαφονήσου",
        "name_en": "Elafonisos",
        "value": "293"
      },
      {
        "name_gr": "Επιδαύρου",
        "name_en": "Epidaurus",
        "value": "294"
      },
      {
        "name_gr": "Ερμιονίδας",
        "name_en": "Ermionida",
        "value": "295"
      },
      {
        "name_gr": "Ευρώτα",
        "name_en": "Evrotas",
        "value": "296"
      },
      {
        "name_gr": "Καλαμάτας",
        "name_en": "Kalamata",
        "value": "297"
      },
      {
        "name_gr": "Κορινθίων",
        "name_en": "Corinth",
        "value": "298"
      },
      {
        "name_gr": "Λουτρακίου - Περαχώρας - Αγ. Θεοδώρων",
        "name_en": "Loutraki - Perachora - Ag. Theodoroi",
        "value": "299"
      },
      {
        "name_gr": "Μεγαλόπολης",
        "name_en": "Megalopoli",
        "value": "300"
      },
      {
        "name_gr": "Μεσσήνης",
        "name_en": "Messini",
        "value": "301"
      },
      {
        "name_gr": "Μονεμβασίας",
        "name_en": "Monemvasia",
        "value": "302"
      },
      {
        "name_gr": "Ναυπλιέων",
        "name_en": "Nafplio",
        "value": "303"
      },
      {
        "name_gr": "Νεμέας",
        "name_en": "Nemea",
        "value": "304"
      },
      {
        "name_gr": "Νότιας Κυνουρίας",
        "name_en": "South Kynouria",
        "value": "305"
      },
      {
        "name_gr": "Ξυλοκάστρου - Ευρωστίνης",
        "name_en": "Xylokastro - Evrostina",
        "value": "306"
      },
      {
        "name_gr": "Οιχαλίας",
        "name_en": "Oichalia",
        "value": "307"
      },
      {
        "name_gr": "Πύλου - Νέστορος",
        "name_en": "Pylos - Nestor",
        "value": "308"
      },
      {
        "name_gr": "Σικυωνίων",
        "name_en": "Sicyon",
        "value": "309"
      },
      {
        "name_gr": "Σπάρτης",
        "name_en": "Sparta",
        "value": "310"
      },
      {
        "name_gr": "Τρίπολης",
        "name_en": "Tripoli",
        "value": "311"
      },
      {
        "name_gr": "Τριφυλίας",
        "name_en": "Trifylia",
        "value": "312"
      }
    ]
  },
  "Στερεάς Ελλάδας": {
    "region_value": "13",
    "region_name_en": "Central Greece",
    "municipalities": [
      {
        "name_gr": "Αγράφων",
        "name_en": "Agrafa",
        "value": "313"
      },
      {
        "name_gr": "Αλιάρτου - Θεσπιέων",
        "name_en": "Aliartos - Thespies",
        "value": "314"
      },
      {
        "name_gr": "Αμφίκλειας - Ελάτειας",
        "name_en": "Amfikleia - Elateia",
        "value": "315"
      },
      {
        "name_gr": "Δελφών",
        "name_en": "Delphi",
        "value": "316"
      },
      {
        "name_gr": "Διρφύων - Μεσσαπίων",
        "name_en": "Dirfys - Messapia",
        "value": "317"
      },
      {
        "name_gr": "Διστόμου-Αράχοβας - Αντίκυρας",
        "name_en": "Distomo-Arachova - Antikyra",
        "value": "318"
      },
      {
        "name_gr": "Δομοκού",
        "name_en": "Domokos",
        "value": "319"
      },
      {
        "name_gr": "Δωρίδος",
        "name_en": "Dorida",
        "value": "320"
      },
      {
        "name_gr": "Ερέτριας",
        "name_en": "Eretria",
        "value": "321"
      },
      {
        "name_gr": "Θηβαίων",
        "name_en": "Thebes",
        "value": "322"
      },
      {
        "name_gr": "Ιστιαίας - Αιδηψού",
        "name_en": "Istiaia - Aidipsos",
        "value": "323"
      },
      {
        "name_gr": "Καρπενησίου",
        "name_en": "Karpenisi",
        "value": "324"
      },
      {
        "name_gr": "Καρύστου",
        "name_en": "Karystos",
        "value": "325"
      },
      {
        "name_gr": "Κύμης - Αλιβερίου",
        "name_en": "Kymi - Aliveri",
        "value": "326"
      },
      {
        "name_gr": "Λαμιέων",
        "name_en": "Lamia",
        "value": "327"
      },
      {
        "name_gr": "Λεβαδέων",
        "name_en": "Levadia",
        "value": "328"
      },
      {
        "name_gr": "Λοκρών",
        "name_en": "Lokroi",
        "value": "329"
      },
      {
        "name_gr": "Μακρακώμης",
        "name_en": "Makrakomi",
        "value": "330"
      },
      {
        "name_gr": "Μαντουδίου - Λίμνης - Αγίας Άννας",
        "name_en": "Mantoudi - Limni - Agia Anna",
        "value": "331"
      },
      {
        "name_gr": "Καμένων Βούρλων",
        "name_en": "Kamena Vourla",
        "value": "332"
      },
      {
        "name_gr": "Ορχομενού",
        "name_en": "Orchomenos",
        "value": "333"
      },
      {
        "name_gr": "Σκύρου",
        "name_en": "Skyros",
        "value": "334"
      },
      {
        "name_gr": "Στυλίδος",
        "name_en": "Stylida",
        "value": "335"
      },
      {
        "name_gr": "Τανάγρας",
        "name_en": "Tanagra",
        "value": "336"
      },
      {
        "name_gr": "Χαλκιδέων",
        "name_en": "Chalcis",
        "value": "337"
      }
    ]
  }
}